[{"OBJECT_NAME":"STARLINK-6378","OBJECT_ID":"2023-099V","EPOCH":"2026-03-09T12:26:53.115648","MEAN_MOTION":15.02538811,"ECCENTRICITY":0.00014386,"INCLINATION":43.0053,"RA_OF_ASC_NODE":249.666,"ARG_OF_PERICENTER":279.9603,"MEAN_ANOMALY":80.1077,"EPHEMERIS_TYPE":0,"CLASSIFICATION_TYPE":"U","NORAD_CAT_ID":57347,"ELEMENT_SET_NO":999,"REV_AT_EPOCH":14609,"BSTAR":3.5034477e-5,"MEAN_MOTION_DOT":2.7e-6,"MEAN_MOTION_DDOT":0},{"OBJECT_NAME":"CZ-4 DEB","OBJECT_ID":"2006-046H","EPOCH":"2026-03-09T02:48:41.934528","MEAN_MOTION":15.12857559,"ECCENTRICITY":0.00451328,"INCLINATION":97.5575,"RA_OF_ASC_NODE":118.4736,"ARG_OF_PERICENTER":295.6188,"MEAN_ANOMALY":89.8626,"EPHEMERIS_TYPE":0,"CLASSIFICATION_TYPE":"U","NORAD_CAT_ID":35375,"ELEMENT_SET_NO":999,"REV_AT_EPOCH":5626,"BSTAR":0.00023308037,"MEAN_MOTION_DOT":4.131e-5,"MEAN_MOTION_DDOT":0}]
